HST                     
1 20580U 90037B   24073.59704457  .00005525  00000+0  26804-3 0  9990
2 20580  28.4676 264.8714 0003098  71.4840 288.6088 15.16281575662506
POLAR                   
1 23802U 96013A   24071.85745249  .00000259  00000+0  00000+0 0  9996
2 23802  79.0598 235.5735 5831848 237.0903  53.3175  1.29846905134114
SWAS                    
1 25560U 98071A   24073.51515798  .00004879  00000+0  40693-3 0  9992
2 25560  69.8991 181.4105 0003769  68.7307 291.4254 14.99230420373046
CXO                     
1 25867U 99040B   24075.31335149  .00000887  00000+0  00000+0 0  9998
2 25867  39.2433 163.2357 8969931 289.4884   0.3766  0.37810143 25364
XMM-NEWTON              
1 25989U 99066A   24073.10811062  .00000076  00000+0  00000+0 0  9999
2 25989  68.1471 294.2810 5245250  78.5875  72.3181  0.50130105 18872
TERRA                   
1 25994U 99068A   24073.54685352  .00000599  00000+0  13539-3 0  9991
2 25994  98.0588 139.8149 0001020 338.8755 157.3678 14.59597161289099
CLUSTER II-FM7 (SAMBA)  
1 26410U 00041A   24072.09450658  .00000029  00000+0  00000+0 0  9999
2 26410 138.3577 356.3642 7242112 211.2025 359.7474  0.44200460 16613
CLUSTER II-FM6 (SALSA)  
1 26411U 00041B   24056.23863267  .00002048  00000+0  00000+0 0  9995
2 26411 145.9962  14.4063 8793806 228.8952 359.4019  0.44230975 16605
CLUSTER II-FM5 (RUMBA)  
1 26463U 00045A   24069.82687681  .00001189  00000+0  00000+0 0  9994
2 26463 148.6176  12.4777 8338118 227.6369   0.1662  0.44209508 16533
CLUSTER II-FM8 (TANGO)  
1 26464U 00045B   24072.09550624  .00000028  00000+0  00000+0 0  9995
2 26464 138.3327 356.3334 7235157 211.1743 359.9791  0.44218320 16629
ODIN                    
1 26702U 01007A   24073.48887851  .00008851  00000+0  41758-3 0  9999
2 26702  97.4909  89.2398 0006144 250.0455 110.0118 15.19682234262353
TIMED                   
1 26998U 01055B   24073.51046379  .00001586  00000+0  16467-3 0  9992
2 26998  74.0688  92.5752 0001680 241.4486 118.6527 14.90885138207560
INTEGRAL                
1 27540U 02048A   24072.55616483  .00000034  00000+0  00000+0 0  9990
2 27540  88.1951  25.2976 8674564 284.7258 277.7816  0.37569826 23525
CORIOLIS                
1 27640U 03001A   24073.50213583  .00000145  00000+0  89491-4 0  9990
2 27640  98.7166  82.2446 0015230  72.1822 288.1015 14.19413179 97064
SORCE                   
1 27651U 03004A   24073.61494595  .00003363  00000+0  32035-3 0  9997
2 27651  39.9927 261.0031 0021460 280.1971  79.6399 14.94171243147940
MOST                    
1 27843U 03031D   24073.50230811  .00000130  00000+0  80062-4 0  9990
2 27843  98.7095  81.8442 0011008 113.7205 246.5128 14.20913439 73431
SCISAT 1                
1 27858U 03036A   24073.56344577  .00001223  00000+0  17065-3 0  9998
2 27858  73.9346   8.9886 0009180 260.5245  99.4892 14.78895757109276
SWIFT                   
1 28485U 04047A   24073.53451839  .00011387  00000+0  54416-3 0  9998
2 28485  20.5557 144.5775 0009222 123.5451 236.5866 15.16310291 59629
CLOUDSAT                
1 29107U 06016A   24073.45930334  .00001564  00000+0  21189-3 0  9998
2 29107  98.4016  54.2595 0002395 175.7311 184.3920 14.80493278951988
CALIPSO                 
1 29108U 06016B   24073.56908249  .00001780  00000+0  33951-3 0  9991
2 29108  98.4113  53.1422 0001429  78.2827 281.8535 14.65284524951946
HINODE (SOLAR-B)        
1 29479U 06041A   24073.46784769  .00000926  00000+0  17698-3 0  9999
2 29479  98.0965  90.1303 0018611  27.7427 332.4766 14.66114834933758
SJ-6C                   
1 29505U 06046A   24073.58949375  .00004947  00000+0  38288-3 0  9998
2 29505  97.7349 100.9720 0007499  93.0888 267.1195 15.01904266947674
SJ-6D                   
1 29506U 06046B   24073.53376628  .00002429  00000+0  21764-3 0  9993
2 29506  97.7487  99.3374 0000739 225.4214 134.6947 14.96735978947014
FGRST (GLAST)           
1 33053U 08029A   24073.55518605  .00004023  00000+0  18839-3 0  9994
2 33053  25.5822 145.6516 0010280   0.3504 359.7039 15.15911804870041
WISE                    
1 36119U 09071A   24073.52162172  .00031388  00000+0  46859-3 0  9996
2 36119  97.1621 109.4618 0003418 112.1147 248.0471 15.54990938793334
SDO                     
1 36395U 10005A   24073.57435450 -.00000068  00000+0  00000+0 0  9994
2 36395  32.9264  99.0789 0002075 216.2660 321.2222  1.00275201 51786
CRYOSAT 2               
1 36508U 10013A   24073.55766325  .00000300  00000+0  73704-4 0  9999
2 36508  92.0260  77.8326 0001190 199.0717 161.0445 14.51902672738287
X-SAT                   
1 37389U 11015C   24073.54249265  .00000177  00000+0  93741-4 0  9993
2 37389  98.2964  82.7860 0013008 246.0636 113.9182 14.24641049670092
GCOM-W1 (SHIZUKU)       
1 38337U 12025A   24073.42893208  .00000879  00000+0  20514-3 0  9994
2 38337  98.2041  14.9110 0001565  81.3568  30.8887 14.57113217628781
NUSTAR                  
1 38358U 12031A   24073.58335648  .00006843  00000+0  54254-3 0  9995
2 38358   6.0283  45.8529 0010590 189.1184 321.3531 14.94900226639955
NEOSSAT                 
1 39089U 13009D   24073.52722934  .00000284  00000+0  11442-3 0  9990
2 39089  98.4056 263.4003 0011106 181.6002 178.5150 14.35081223578284
BRITE-AUSTRIA           
1 39091U 13009F   24073.49952891  .00000315  00000+0  12371-3 0  9993
2 39091  98.3866 263.6787 0010350 179.1429 180.9777 14.35707796578531
IRIS                    
1 39197U 13033A   24073.47963136  .00001751  00000+0  22861-3 0  9999
2 39197  97.9664 264.6332 0027207 130.3150 230.0446 14.81545696577916
HISAKI (SPRINT-A)       
1 39253U 13049A   24073.48308305  .00000143  00000+0  10388-3 0  9996
2 39253  29.7196  97.4360 0136993 163.4292 197.0814 13.55375453519315
CASSIOPE                
1 39265U 13055A   24073.59588537  .00020883  00000+0  45918-3 0  9995
2 39265  80.9549 301.8465 0517924 203.0676 154.6507 14.64782824544378
STSAT-3                 
1 39422U 13066G   24073.54516966  .00003439  00000+0  32646-3 0  9996
2 39422  97.5134  57.0725 0020190 324.3327  35.6544 14.93997969560535
SWARM B                 
1 39451U 13067A   24073.56746674  .00004520  00000+0  21275-3 0  9990
2 39451  87.7488 231.0309 0002614  88.6197 271.5347 15.19303412557472
SWARM A                 
1 39452U 13067B   24073.55660728  .00007046  00000+0  23573-3 0  9994
2 39452  87.3505 357.4536 0003952  87.7824 272.3878 15.30790203579122
SWARM C                 
1 39453U 13067C   24073.55654069  .00006986  00000+0  23372-3 0  9995
2 39453  87.3503 356.0501 0003962  87.6681 272.5023 15.30788372579082
BRITE-CA1 (TORONTO)     
1 40020U 14033L   24073.33316155  .00001180  00000+0  19894-3 0  9993
2 40020  97.8600 213.9487 0084496  38.8852 321.8391 14.68987876520791
OCO 2                   
1 40059U 14035A   24073.54153044  .00000859  00000+0  20062-3 0  9997
2 40059  98.2124  15.8073 0001779  59.7945 300.3430 14.57141945515817
BRITE-PL2 (HEWELIUSZ)   
1 40119U 14049B   24073.56021990  .00002721  00000+0  30099-3 0  9996
2 40119  97.8774 173.7498 0015233 322.6065  37.4090 14.88130616518359
RESURS P2               
1 40360U 14087A   24073.58501834  .00023339  00000+0  36842-3 0  9998
2 40360  97.1546 159.9550 0005615 293.5968  66.4696 15.53497111514666
MMS 1                   
1 40482U 15011A   24073.58335648 -.00002211  00000+0  00000+0 0  9999
2 40482  42.2087  19.2657 9131146 139.7599  79.0070  0.28378565  1302
MMS 2                   
1 40483U 15011B   24073.58335648 -.00002210  00000+0  00000+0 0  9999
2 40483  42.2184  19.2604 9129775 139.7678  78.9905  0.28371352  1308
MMS 3                   
1 40484U 15011C   24073.58335648 -.00002210  00000+0  00000+0 0  9990
2 40484  42.2118  19.2614 9129177 139.7709  78.9843  0.28371371  1300
MMS 4                   
1 40485U 15011D   24073.58335648 -.00002210  00000+0  00000+0 0  9991
2 40485  42.2115  19.2561 9129802 139.7697  79.0035  0.28371413  1302
ASTROSAT                
1 40930U 15052A   24069.57687054  .00002512  00000+0  24908-3 0  9997
2 40930   5.9965 351.7552 0007656 101.0723 259.0266 14.78528558456691
DAMPE                   
1 41173U 15078A   24073.58349011  .00001929  00000+0  76154-4 0  9991
2 41173  97.4273  67.5622 0014600 116.6390 243.6346 15.26668228458398
PISAT                   
1 41784U 16059B   24073.51168093  .00001324  00000+0  25118-3 0  9993
2 41784  97.8443  99.8747 0029772 319.4992  40.3996 14.65522727398641
HXMT (HUIYAN)           
1 42758U 17034A   24073.47690035  .00006626  00000+0  34915-3 0  9995
2 42758  43.0143  84.5962 0002079 289.8822  70.1802 15.16120999372322
FLYING LAPTOP           
1 42831U 17042G   24073.59251155  .00002911  00000+0  27412-3 0  9992
2 42831  97.3841 260.1256 0013862  43.3154 316.9154 14.94493294362856
ZHANGZHENG-1 (CSES)     
1 43194U 18015C   24073.54702148  .00016048  00000+0  72914-3 0  9997
2 43194  97.5948 216.4062 0014807 110.5169 249.7657 15.20751361339151
SALSAT                  
1 46495U 20068K   24073.39792524  .00005695  00000+0  34093-3 0  9997
2 46495  97.8070  30.4774 0012242 282.9202  77.0660 15.11373884189838
IXPE                    
1 49954U 21121A   24073.58335648  .00006472  00000+0  48054-3 0  9998
2 49954   0.2318  22.2581 0010177 299.9225 228.3189 14.96825107  5596
